K13M00R 21.7   0.15 K194R 190.47449  207.35636  266.86097   20.24419  0.4908528  1.20715525   0.8735625  2 MPO456856    57   4 2013-2018 0.34 M-v 3Eh MPCLINUX   0802          2013 MR            20180905
K13M03L 22.4   0.15 K194R 295.83508    4.44326  252.12391    9.63782  0.5342431  0.30560862   2.1828588  3 MPO271297   186   1   70 days 0.40 M-v 3Eh MPCALB     2804          2013 ML3           20130828
K13M05X 18.9   0.15 K194R 249.05034   53.13527  250.10082    6.59382  0.4467806  0.28797084   2.2711041  1 MPO277237   242   2 2006-2013 0.39 M-v 38h MPCALB     0804          2013 MX5           20131104
K13M06D 21.6   0.15 K194R 314.80425    1.59350   91.94860   28.30348  0.4338222  1.24979096   0.8535805  2 MPO413640    49   3 2002-2017 0.21 M-v 3Eh MPCLINUX   0802          2013 MD6           20170623
K13M06R 19.0   0.15 K194R  90.43823  216.70818  114.32682   35.97645  0.5454223  0.22083210   2.7107819  3 MPO273982    85   1  108 days 0.35 M-v 38h MPCALB     2804          2013 MR6           20131005
K13M06W 19.8   0.15 K194R 233.57616  191.10357    0.82927    5.51895  0.4841773  0.43207362   1.7328629  2 MPO312415    59   2 2013-2014 0.27 M-v 3Eh MPCW       8803          2013 MW6           20141101
K13M07H 19.5   0.15 K194R 282.73950  257.77683   87.29077   55.74178  0.5738419  0.31300850   2.1483183  1 MPO397837    92   3 2013-2016 0.66 M-v 3Eh MPCW       0803          2013 MH7           20161230
K13M08D 24.2   0.15 K194R   6.82857   68.57792  134.10134    1.72321  0.5787822  0.33211108   2.0651288  7 MPO265944    12   1   14 days 0.10 M-v 3Eh MPCW       2803          2013 MD8           20130703
K13M10V 22.0   0.15 K194R  49.28026   31.30694  208.89764    8.00773  0.4254481  0.35424350   1.9781905  7 MPO271297    13   1   45 days 0.31 M-v 38h MPCALB     2804          2013 MV10          20130813
K13M11P 21.8   0.15 K194R 283.93452  341.33494  293.63057    9.05894  0.4307916  0.30115854   2.2043096  4 MPO271297    54   1   69 days 0.26 M-v 38h MPCADO     2804          2013 MP11          20130907
K13M11R 21.6   0.15 K194R 333.48980  105.04727   92.24724   16.52818  0.3822363  0.47775336   1.6205666  7 MPO265945     7   1    5 days 0.15 M-v 3Eh MPCR       2804          2013 MR11          20130705
K13M11S 20.8   0.15 K194R 233.72048  301.54911  277.39085   16.38550  0.3643693  0.43049955   1.7370844  3 MPO317791    18   2 2013-2014 0.39 M-v 38h MPCW       0804          2013 MS11          20141223
K13N00J 22.0   0.15 K194R 281.53569  140.35007  238.59715    3.94060  0.2835273  0.67578069   1.2860727  0 MPO409446   241   2 2013-2017 0.31 M-v 3Eh MPCW       8803          2013 NJ            20170307
K13N00K 21.4   0.15 K194R 195.13270   67.21084  265.35365    3.25830  0.4648907  0.26938481   2.3744005  3 MPO277238    85   1  130 days 0.27 M-v 38h MPCALB     2804          2013 NK            20131108
K13N00U 21.2   0.15 K194R 178.51775  185.92382  111.37386    5.79499  0.4697313  0.25739261   2.4475900  4 MPO268509    33   1   27 days 0.25 M-v 38h MPCALB     2804          2013 NU            20130728
K13N00V 20.2   0.15 K194R 141.42096  227.79300  275.61309   29.29224  0.5110123  1.05039908   0.9584435  2 MPO460939   207   6 1983-2018 0.31 M-v 3Eh MPCLINUX   8802          2013 NV            20180927
K13N00W 22.3   0.15 K194R  71.71245  118.96634  234.89130    7.46534  0.6869356  0.21272172   2.7792535  4 MPO277238    42   1  120 days 0.28 M-v 3Eh MPCALB     2803          2013 NW            20131030
K13N04H 25.8   0.15 K194R 127.68836  236.34249   95.66417    4.30862  0.6566280  0.23495842   2.6010101  4 MPO265947    21   1    4 days 0.25 M-v 3Eh MPCW       2803          2013 NH4           20130705
K13N04J 27.4   0.15 K194R 241.73008  238.52069  115.60589    1.32244  0.2030741  0.81643804   1.1337585  5 MPO265947    14   1    4 days 0.35 M-v 3Eh MPCALB     2803          2013 NJ4           20130706
K13N06G 22.2   0.15 K194R 316.73114  358.30205  273.69301    7.97316  0.4017916  0.31610214   2.1342785  4 MPO271297    36   1   42 days 0.33 M-v 38h MPCALB     2804          2013 NG6           20130813
K13N06H 23.3   0.15 K194R 110.76687   69.92953   98.38776   24.16320  0.5874339  0.70963952   1.2448323  6 MPO285772    39   1   13 days 0.30 M-v 3Eh MPCALB     2803          2013 NH6           20130716
K13N06V 17.9   0.15 K194R 295.01978  154.14081  254.70586   21.27204  0.7702894  0.33800356   2.0410573  1 MPO409446    68   4 2013-2017 0.21 M-v 3Eh MPCLINUX   1C03          2013 NV6           20170406
K13N08M 22.6   0.15 K194R 305.77334  182.29967   96.31961    7.84128  0.4300883  0.31435640   2.1421729  6 MPO265948    11   1    7 days 0.05 M-v 38h MPCW       2804          2013 NM8           20130708
K13N08P 21.7   0.15 K194R  78.96728  251.56785   80.25968    8.04914  0.4382212  0.38451658   1.8729492  0 MPO448330    65   2 2013-2018 0.26 M-v 3Eh MPCLINUX   0804          2013 NP8           20180522
K13N08Q 22.0   0.15 K194R 166.88534  227.33509  105.34691   13.76628  0.6073076  0.25383221   2.4704244  7 MPO265948    38   1   11 days 0.47 M-v 3Eh MPCALB     2803          2013 NQ8           20130718
K13N10G 22.7   0.15 K194R 319.73944  316.53212  111.23856   20.58305  0.3354896  1.05841103   0.9536005  8 MPO265949    17   1    6 days 0.35 M-v 3Eh MPCK       2802          2013 NG10          20130709
K13N10H 23.1   0.15 K194R 348.53659   58.20441  232.20670    2.20606  0.4410170  0.33526082   2.0521740  5 MPO271297    71   1   42 days 0.45 M-v 38h MPCALB     2804          2013 NH10          20130815
K13N10J 18.4   0.15 K194R 101.35285   25.09160   90.75196    7.03960  0.4572890  0.48088266   1.6135285  4 MPO411550    42   3 2013-2017 0.14 M-v 3Eh MPCLINUX   8803          2013 NJ10          20170521
K13N10L 22.8   0.15 K194R 318.16755  182.83725  132.97962    8.69901  0.4922034  0.32405007   2.0992362  5 MPO271297    54   1   68 days 0.34 M-v 3Eh MPCALB     2804          2013 NL10          20130913
K13N11O 22.9   0.15 K194R 257.71020  207.49345  108.81431   10.48417  0.4703144  0.29640438   2.2278176  6 MPO268510    29   1   28 days 0.22 M-v 38h MPCALB     2804          2013 NO11          20130805
K13N11P 21.4   0.15 K194R 208.56967   68.10125  284.19972   18.59774  0.2326360  0.62956331   1.3482687  3 MPO281951   135   1  172 days 0.30 M-v 3Eh MPCALB     2804          2013 NP11          20131228
K13N11T 19.6   0.15 K194R  26.41679  214.86394  297.65171   53.54626  0.4929640  0.81715853   1.1330920  3 E2018-W58    95   3 2013-2018 0.31 M-v 3Eh MPCLINUX   0803          2013 NT11          20180911
K13N13R 25.7   0.15 K194R   2.32212  135.23126  113.35976    5.53532  0.5282638  0.33610739   2.0487266  7 MPO265950    12   1    4 days 0.19 M-v 3Eh MPCALB     2803          2013 NR13          20130716
K13N13S 25.5   0.15 K194R   9.91568  217.98201  114.95304    3.83830  0.5119267  0.35113094   1.9898636  7 MPO265950    16   1    2 days 0.39 M-v 3Eh MPCALB     2803          2013 NS13          20130714
K13N15A 22.5   0.15 K194R 195.04894  226.37478  118.47202   14.34545  0.3762049  0.44361068   1.7026866  6 MPO268510    43   1   34 days 0.38 M-v 3Eh MPCADO     2804          2013 NA15          20130816
K13N15B 26.7   0.15 K194R 174.90522  208.90443  110.28572    9.93579  0.4199596  0.42850214   1.7424783  7 MPO265951     5   1    1 days 0.17 M-v 3Eh MPCK       2804          2013 NB15          20130714
K13N15C 22.1   0.15 K194R 139.08109  143.69989  296.81004   20.93502  0.2080574  0.80904057   1.1406590  2 MPO283485    46   2 2013-2014 0.23 M-v 3Eh MPCW       0803          2013 NC15          20140128
K13N15D 24.1   0.15 K194R 320.05400   19.74453   95.81028    4.79477  0.6115305  1.60115799   0.7236245  8 MPO268510    22   1   26 days 0.34 M-v 3Eh MPCALB     2802          2013 ND15          20130808
K13N15E 22.1   0.15 K194R  55.00000  280.40751  304.05775   21.60090  0.2156199  0.51282555   1.5458106  6 MPO268510    29   1   27 days 0.32 M-v 38h MPCALB     2804          2013 NE15          20130810
K13N15J 22.7   0.15 K194R 335.95937    8.16262  298.49400   16.77198  0.1757068  0.50280155   1.5662881  1 MPO343607    39   2 2013-2015 0.37 M-v 38h MPCW       0804          2013 NJ15          20150815
K13N19E 23.1   0.15 K194R 285.61262  128.37360  287.25236    5.51276  0.8306216  0.31412086   2.1432436  7 MPO268511    33   1    6 days 0.22 M-v 3Eh MPCALB     2803          2013 NE19          20130721
K13N19F 21.6   0.15 K194R 271.75704  262.92115  283.43614   27.33573  0.6953881  0.45666355   1.6700846  4 MPO271298    31   1   44 days 0.33 M-v 3Eh MPCALB     A803          2013 NF19          20130828
K13N23X 18.7   0.15 K194R 271.85193   98.66324  304.50159   17.02533  0.5372914  0.31313150   2.1477557  0 MPO403052   220   2 2013-2017 0.34 M-h 3Eh MPCLINUX   0803          2013 NX23          20170212
K13N23Z 18.6   0.15 K194R 141.07114  240.08243  165.67959   32.12074  0.5816465  0.24323952   2.5416356  1 MPO441056    47   3 2013-2018 0.29 M-v 3Eh MPCLINUX   0804          2013 NZ23          20180317
K13N24A 21.6   0.15 K194R 196.78437  215.25274  150.28863    1.54117  0.2466415  0.45407033   1.6764372  8 MPO267688     9   1   23 days 0.42 M-v 38h MPCW       2804          2013 NA24          20130807
K13N24C 25.3   0.15 K194R 255.08269  307.73879  109.29449   10.14192  0.2698204  1.01815536   0.9785733  8 MPO267688     8   1    8 days 0.10 M-v 3Eh MPCW       2802          2013 NC24          20130714
K13N24D 21.2   0.15 K194R 330.79316   97.12538  295.20505    3.63628  0.7424598  0.33627530   2.0480446  5 MPO271298    15   1   47 days 0.09 M-v 3Eh MPCALB     A803          2013 ND24          20130802
K13N24E 27.3   0.15 K194R  93.08192  289.45830  320.43412    0.40596  0.6626699  0.21098195   2.7945112  6 MPO267689     6   1    1 days 0.18 M-v 3Eh MPCS       2803          2013 NE24          20130715
K13O00F 23.6   0.15 K194R 232.16524   69.59087  279.22848    7.18858  0.5926286  0.28745029   2.2738452  3 MPO277238    64   1  106 days 0.36 M-v 3Eh MPCALB     2803          2013 OF            20131030
